DIAMOND BLUE            
1 42786U 17036X   24104.38724033  .01958838  41924-2  14390-2 0  9998
2 42786  97.0925 144.6817 0007324 214.9955 145.0852 16.16695573379770
CICERO 6                
1 42793U 17036AE  24104.57234773  .00116193  00000+0  95205-3 0  9995
2 42793  97.0990 141.2757 0005023 103.5256 256.6567 15.70131634379591
CORVUS BC2              
1 42846U 17042X   24104.43608388  .00003215  00000+0  28411-3 0  9998
2 42846  97.3752 293.1743 0007278 278.5095  81.5302 14.96975769367758
CORVUS BC1              
1 42847U 17042Y   24104.47056130  .00004488  00000+0  39329-3 0  9998
2 42847  97.3749 293.5993 0006439 274.8918  85.1569 14.97123629367775
MIRATA                  
1 43015U 17073C   24104.23090443  .00022121  00000+0  11136-2 0  9998
2 43015  97.6035 349.8568 0180641 122.2010 239.6876 15.04023951346550
MAKERSAT 0              
1 43016U 17073D   24104.59785606  .00012089  00000+0  71270-3 0  9998
2 43016  97.5890 345.4446 0203721 139.3274 222.3367 14.95858932346257
CORVUS BC3              
1 43118U 18004H   24104.21894025  .00106244  00000+0  90104-3 0  9995
2 43118  97.2903 187.7652 0004090 140.5097 219.6463 15.69329760348660
GOMX-4B                 
1 43196U 18015E   24104.42768924  .00049885  00000+0  73600-3 0  9993
2 43196  97.6064 273.4970 0009861 193.0398 167.0602 15.55172332345431
GOMX-4A                 
1 43197U 18015F   24104.56063540  .00070062  00000+0  78166-3 0  9994
2 43197  97.5987 277.8465 0008632 186.0522 174.0632 15.62533233345742
CICERO 10               
1 43690U 18088A   24104.38256377  .00086426  00000+0  96724-3 0  9995
2 43690  85.0178 225.6306 0008489 181.4685 178.6555 15.62379182302038
PROXIMA I               
1 43694U 18088E   24104.55756108  .00209953  00000+0  11812-2 0  9991
2 43694  85.0091 218.9026 0004240 182.1998 177.9257 15.78640908302536
PROXIMA II              
1 43696U 18088G   24104.32071651  .00202135  00000+0  12043-2 0  9993
2 43696  85.0101 219.2334 0004097 179.7488 180.3787 15.77369682302477
SIRION PATHFINDER-2     
1 43759U 18099B   24104.08703628  .00004701  00000+0  36454-3 0  9996
2 43759  97.5383 162.0805 0014123 145.3486 214.8662 15.01778018292739
CORVUS BC4              
1 43767U 18099K   24104.09200934  .00004618  00000+0  36458-3 0  9999
2 43767  97.5213 159.4819 0008502 222.2350 137.8220 15.01147632292628
MOVE-II                 
1 43780U 18099Y   24104.40118384  .00016985  00000+0  97519-3 0  9991
2 43780  97.5264 168.1187 0007776 190.5563 169.5506 15.12572943293123
SPACEBEE-7              
1 43816U 18099BL  24104.15362336  .00010726  00000+0  67676-3 0  9999
2 43816  97.5537 168.7312 0011925 147.7566 212.4394 15.09221110292596
SPACEBEE-6              
1 43818U 18099BN  24104.15195060  .00026209  00000+0  12790-2 0  9998
2 43818  97.5459 173.1022 0010846 156.2518 203.9219 15.18215299293023
SHIELDS 1               
1 43850U 18104B   24104.59115702  .00011864  00000+0  34212-3 0  9999
2 43850  85.0238 326.8983 0009733 324.3540  35.7058 15.35519386296247
ZACUBE-2                
1 43907U 18111AH  24104.10688233  .00569777  13842-3  13560-2 0  9996
2 43907  97.0724 347.4729 0008104 163.5285 196.6257 15.96611749295958
SONATE                  
1 44400U 19038Q   24104.50233480  .00020578  00000+0  68928-3 0  9996
2 44400  97.7133  95.8684 0015913 343.9005  16.1727 15.30850002264175
LUCKY-7                 
1 44406U 19038W   24104.51560737  .00033994  00000+0  89513-3 0  9990
2 44406  97.7049  99.1583 0012236 331.4469  28.6104 15.38392630264402
BEESAT 9                
1 44412U 19038AC  24104.51716083  .00150583  00000+0  14703-2 0  9996
2 44412  97.6841 106.3782 0002161 291.2625  68.8403 15.65701565264615
JAISAT-1                
1 44419U 19038F   24104.53791760  .00142244  00000+0  14537-2 0  9990
2 44419  97.6828 107.4231 0001964 294.2992  65.8061 15.64574786264998
DUCHIFAT-3              
1 44854U 19089C   24104.28312118  .00015141  00000+0  82444-3 0  9995
2 44854  36.9588  82.3515 0010210 270.4880  89.4696 15.13750878238429
M2 PATHFINDER           
1 45727U 20037E   24104.47692508  .00003026  00000+0  27135-3 0  9990
2 45727  97.7740 281.2914 0010923 344.6156  15.4732 14.96485205206264
NETSAT-4                
1 46504U 20068U   24104.45030908  .00009752  00000+0  54964-3 0  9998
2 46504  97.8013  59.9463 0008693 213.1912 146.8774 15.13382209194375
NETSAT-3                
1 46505U 20068V   24104.41250549  .00010171  00000+0  58059-3 0  9996
2 46505  97.7989  59.4922 0007665 223.1687 136.8943 15.12920242194360
NETSAT-1                
1 46506U 20068W   24104.39846902  .00007483  00000+0  44408-3 0  9993
2 46506  97.8013  59.0853 0006200 234.4995 125.5657 15.11623396194333
NETSAT-2                
1 46507U 20068X   24104.39759041  .00010154  00000+0  57378-3 0  9990
2 46507  97.8002  59.5466 0005297 239.8868 120.1837 15.13296426194311
WILDTRACKCUBE-SIMBA     
1 47941U 21022K   24104.60926706  .00013519  00000+0  64420-3 0  9996
2 47941  97.4669   2.0318 0016748  17.9896 342.1928 15.19114004168659
BEESAT-6                
1 47957U 21022AB  24102.71569214  .00081643  00000+0  16166-2 0  9996
2 47957  97.4517   8.1281 0008352  15.9524 344.1987 15.46747335168715
SMOG-1                  
1 47964U 21022AJ  24104.30132456  .00081500  00000+0  15995-2 0  9996
2 47964  97.4693  12.8002 0006032 351.7145   8.4004 15.47023698168141
BCCSAT-1                
1 48041U 21022AK  24104.24262062  .00049110  00000+0  12910-2 0  9998
2 48041  97.4690   9.6998 0006854 353.0882   7.0267 15.38411446167910
BEESAT-5                
1 48083U 21022AM  24104.23081034  .00123630  00000+0  19693-2 0  9996
2 48083  97.4300  10.6011 0006124  13.4779 346.6637 15.52803379168183
BEESAT-7                
1 48084U 21022AN  24104.23237349  .00067686  00000+0  14563-2 0  9998
2 48084  97.4638   9.9700 0008119 358.7361   1.3865 15.44368814167685
BEESAT-8                
1 48085U 21022AP  24102.66051836  .00024136  00000+0  88750-3 0  9992
2 48085  97.4793   4.2699 0013688  15.0588 345.1055 15.27797718167707
LEDSAT                  
1 49069U 21073D   24104.16458465  .00015057  00000+0  65784-3 0  9991
2 49069  97.4415 175.8434 0021565 150.7524 209.4925 15.21988525146553
SITRO-AIS 5 (KATYS)     
1 57176U 23091L   24104.58796663  .00006831  00000+0  45796-3 0  9993
2 57176  97.6194 157.3653 0017231 347.1983  12.8804 15.07067862 43768
SITRO-AIS 6 (CHIRKIN)   
1 57192U 23091AC  24104.57574892  .00007101  00000+0  47514-3 0  9999
2 57192  97.6186 157.3736 0017113 346.2602  13.8157 15.07128062 43768
SITRO-AIS 8 (ANOKHIN)   
1 57193U 23091AD  24104.55539161  .00008133  00000+0  54024-3 0  9998
2 57193  97.6194 157.3938 0016856 347.6067  12.4744 15.07354903 43767
SITRO-AIS 7 (FARTUSHNIY)
1 57194U 23091AE  24104.57898443  .00006903  00000+0  46247-3 0  9993
2 57194  97.6185 157.3640 0016974 347.0646  13.0143 15.07090037 43761
SITRO-AIS 10 (BURDAEV)  
1 57199U 23091AK  24104.60050048  .00008019  00000+0  50992-3 0  9995
2 57199  97.6210 158.1541 0011497 338.2706  21.8033 15.09028473 43816
SITRO-AIS 9 (SHCHUKIN)  
1 57201U 23091AM  24104.59837882  .00007957  00000+0  50595-3 0  9995
2 57201  97.6204 158.1378 0011456 338.1711  21.9028 15.09033597 43819
SITRO-AIS 12 (SMIRENNIY)
1 57204U 23091AQ  24104.56867595  .00009216  00000+0  58264-3 0  9990
2 57204  97.6207 158.2139 0011442 330.4416  29.6165 15.09201298 43815
SITRO-AIS 11 (SHEFFER)  
1 57208U 23091AU  24104.55773513  .00009172  00000+0  57884-3 0  9997
2 57208  97.6210 158.2190 0011240 331.2814  28.7795 15.09268335 43811
SITRO-AIS B             
1 59052U 24039B   24104.57728868  .00022293  00000+0  91137-3 0  9992
2 59052  97.3884  67.2913 0022330  85.8244 274.5545 15.24135642  6743
SITRO-AIS C             
1 59053U 24039C   24104.57695803  .00022621  00000+0  92403-3 0  9997
2 59053  97.3882  67.2900 0022417  86.4953 273.8848 15.24158391  6731
SITRO-AIS 31            
1 59054U 24039D   24104.57459705  .00023128  00000+0  94214-3 0  9992
2 59054  97.3883  67.2930 0022265  86.4860 273.8923 15.24250233  6758
SITRO-AIS 33            
1 59055U 24039E   24104.57175938  .00022909  00000+0  93052-3 0  9991
2 59055  97.3885  67.2984 0022042  86.9906 273.3853 15.24354136  6742
SITRO-AIS F             
1 59056U 24039F   24104.57005007  .00022515  00000+0  91348-3 0  9990
2 59056  97.3885  67.2999 0021859  87.1718 273.2021 15.24398575  6749
SITRO-AIS G             
1 59057U 24039G   24104.57170144  .00022133  00000+0  89992-3 0  9994
2 59057  97.3885  67.2981 0021776  87.2401 273.1329 15.24331524  6740
SITRO-AIS 35            
1 59058U 24039H   24104.57075813  .00022334  00000+0  90648-3 0  9995
2 59058  97.3885  67.3004 0021972  87.2342 273.1410 15.24385554  6743
SITRO-AIS 36            
1 59059U 24039J   24104.56817306  .00023388  00000+0  94709-3 0  9998
2 59059  97.3886  67.3029 0021557  87.2718 273.0986 15.24460990  6743
SITRO-AIS 49            
1 59060U 24039K   24104.56748313  .00022994  00000+0  93073-3 0  9996
2 59060  97.3885  67.3036 0021524  87.2165 273.1535 15.24480121  6741
SITRO-AIS 50            
1 59061U 24039L   24104.56562995  .00022121  00000+0  89286-3 0  9990
2 59061  97.3884  67.3061 0021563  87.3197 273.0509 15.24581976  6748
SITRO-AIS 51            
1 59062U 24039M   24104.56479738  .00022051  00000+0  88961-3 0  9994
2 59062  97.3885  67.3073 0021470  87.2245 273.1449 15.24601032  6743
SITRO-AIS 52            
1 59063U 24039N   24104.56263246  .00023006  00000+0  92593-3 0  9997
2 59063  97.3885  67.3101 0021304  87.0406 273.3269 15.24675606  6749
SITRO-AIS 25            
1 59066U 24039R   24104.60636806  .00004120  00000+0  40491-3 0  9997
2 59066  95.3991  53.6701 0173450 204.2638 155.0344 14.81770138  6548
SITRO-AIS 26            
1 59067U 24039S   24104.60579672  .00003997  00000+0  39307-3 0  9990
2 59067  95.3991  53.6703 0173234 204.2962 155.0019 14.81781668  6540
